#aV2011  5 16  0  0   .00000000      96 DD+AD WGS84 FIT  NGA
## 1636  86400.00000000   900.00000000 55697  .0000000000000
+   31     2  3  4  5  6  7  8  9 10 11 12 13 14 15 16 17 18
+         19 20 21 22 23 24 25 26 27 28 29 30 31 32  0  0  0
+          0  0  0  0  0  0  0  0  0  0  0  0  0  0  0  0  0
+          0  0  0  0  0  0  0  0  0  0  0  0  0  0  0  0  0
+          0  0  0  0  0  0  0  0  0  0  0  0  0  0  0  0  0
++         0  0  0  0  0  0  0  0  0  0  0  0  0  0  0  0  0
++         0  0  0  0  0  0  0  0  0  0  0  0  0  0  0  0  0
++         0  0  0  0  0  0  0  0  0  0  0  0  0  0  0  0  0
++         0  0  0  0  0  0  0  0  0  0  0  0  0  0  0  0  0
++         0  0  0  0  0  0  0  0  0  0  0  0  0  0  0  0  0
%c cc cc ccc ccc cccc cccc cccc cccc ccccc ccccc ccccc ccccc
%c cc cc ccc ccc cccc cccc cccc cccc ccccc ccccc ccccc ccccc
%f  0.0000000  0.000000000  0.00000000000  0.000000000000000
%f  0.0000000  0.000000000  0.00000000000  0.000000000000000
%i    0    0    0    0      0      0      0      0         0
%i    0    0    0    0      0      0      0      0         0
/*      NGA, ST. LOUIS,MO.                                  
/*   EPHEMERIS COMPUTED FROM  3 DAYS OF DATA                
/* CCCCCCCCCCCCCCCCCCCCCCCCCCCCCCCCCCCCCCCCCCCCCCCCCCCCCCCCC
/* CCCCCCCCCCCCCCCCCCCCCCCCCCCCCCCCCCCCCCCCCCCCCCCCCCCCCCCCC
*  2011  5 16  3 30   .00000000                                                 
P  2 -13598.408104 -16886.717996 -15611.673817    336.588371                    
V  2   -333.631172 -19886.772121  21246.934561       .020672                    
P  3  23924.339553  11015.672757  -4977.711067    715.659525                    
V  3  -6517.346924   1619.917729 -29970.437862       .049904                    
P  4  -6636.130047 -24990.951160  -5408.455057    116.736457                    
V  4   2960.531070  -7050.658730  30446.773775       .106048                    
P  5 -17035.221044  -4913.284655 -19824.764320   -160.267372                    
V  5  19573.326348 -15796.111046 -12810.883010      -.057356                    
P  6  21334.561500  14048.269924  -7530.870817    430.777069                    
V  6 -10262.686716   -440.379651 -29047.003858      -.940816                    
P  7   6558.868834 -22212.187477 -12804.986535     11.131206                    
V  7   3665.394106  16038.467214 -26145.525812       .011498                    
P  8   1474.352315 -26019.516885  -3170.531710      7.949307                    
V  8   2221.621419   4057.985595 -32562.075961       .000868                    
P  9 -13936.369150   4470.574336  21612.436775     80.197946                    
V  9  -3859.892345 -28459.205662   3318.673639       .022938                    
P 10  -2459.178287 -16460.871649 -20836.832739      -.709758                    
V 10  21996.328045 -14076.006061   8982.559205      -.011559                    
P 11  16643.895417  -2551.389774  20250.140143   -151.215097                    
V 11   8929.781952  25222.421616  -3748.076919      -.031758                    
P 12 -23251.596972  10387.143637   7240.367823     -4.313674                    
V 12   6150.993965  -7228.941450  30390.373112       .026925                    
P 13  11713.876006  -9947.708286 -21816.487973    270.305811                    
V 13  23788.816959  13325.158612   6683.613530      -.021703                    
P 14   7227.626760  17691.879423  18661.682104    150.245576                    
V 14 -21176.309330  -9694.689835  17403.052408       .022540                    
P 15 -24468.931047  -2312.629025  10280.449446   -127.885801                    
V 15 -10962.541624  -7499.923066 -27627.913997       .025647                    
P 16  16025.621675   5813.433710 -20425.621784   -172.399870                    
V 16 -20992.815543  15118.530418 -11855.828384      -.026413                    
P 17  -7301.501633 -17838.574780  18509.163670    184.306689                    
V 17  21450.449495   8775.928984  16827.901975      -.000459                    
P 18 -12677.472849  19910.174834  12111.890614    137.202270                    
V 18 -14198.942703   6065.894574 -25872.453384       .019591                    
P 19  24553.440281   7213.297882   7759.170755   -141.043775                    
V 19   7401.171544   6817.870103 -29405.368655      -.039659                    
P 20  22253.898965 -13847.376620   3941.610313     49.322700                    
V 20  -1811.546936   6115.759331  30646.004970       .001719                    
P 21  -5488.021235  23306.458657 -10394.237604   -144.545997                    
V 21  -5176.473094 -13635.621206 -27400.714298      -.026072                    
P 22  -1569.764834  18475.388560  19150.783546    148.733402                    
V 22 -20720.464987  12421.907609 -13913.144289      -.003286                    
P 23  21712.242598  -1848.883122 -15422.915836    306.174194                    
V 23  16974.729487   9619.141482  22404.111264      -.026848                    
P 24  14609.653264  -7491.093137  20883.308354    390.301516                    
V 24   2336.111278  26402.302186   8139.472051       .032655                    
P 25 -18544.499575  18311.794840  -5070.362210       .147280                    
V 25  -6730.952322   1722.319971  30972.693766       .009636                    
P 26 -23274.566919 -13245.217320   -985.178299    -31.655645                    
V 26   1218.733507  -1193.655666 -32029.922469      -.109547                    
P 27 -15393.651002  -2295.477993  22217.432727    265.372046                    
V 27  -3865.230468 -26267.523606  -5242.266963       .036794                    
P 28   5706.993992 -18756.737320  18314.394867     38.087064                    
V 28  19274.452267 -11248.575791 -18291.422687       .025838                    
P 29 -14461.619587   8777.664370 -20386.306395    207.843874                    
V 29 -22981.897272 -12358.280769  10983.423888       .029348                    
P 30   8798.440721  12677.442595 -22028.829987    344.924285                    
V 30 -21179.837623  16736.394725   1222.614370       .035960                    
P 31   7366.263197  24223.034358  -7454.931405     80.994015                    
V 31  -1346.928130   9948.279638  30392.694644       .055399                    
P 32  23496.403854  -4998.245143  11140.430820   -254.774873                    
V 32 -10430.393045   9583.390233  27387.276333      -.072700                    
EOF
